ATLAS CENTAUR 2         
1 00694U 63047A   26046.13413179  .00001255  00000+0  13835-3 0  9991
2 00694  30.3580 321.6901 0548111 241.5314 112.9020 14.12002500128430
THOR AGENA D R/B        
1 00733U 64002A   26046.47369207  .00000291  00000+0  12129-3 0  9990
2 00733  99.1229  58.6010 0032324 324.7167  35.1876 14.34006518235115
SL-3 R/B                
1 00877U 64053B   26046.31375368  .00000466  00000+0  11447-3 0  9999
2 00877  65.0769  36.8355 0078692 299.3416  59.9839 14.61344498263528
SL-8 R/B                
1 02802U 67045B   26046.43018177  .00000456  00000+0  13378-3 0  9992
2 02802  74.0109  29.6570 0063354  41.4410 319.1527 14.45599484 85801
SL-8 R/B                
1 03230U 68040B   26046.28075558  .00004936  00000+0  36642-3 0  9999
2 03230  74.0329 359.4722 0024969 190.2812 169.7870 15.03088904 86640
OAO 2                   
1 03597U 68110A   26046.36200686  .00000308  00000+0  88170-4 0  9997
2 03597  34.9946  29.8807 0005285  12.8278 347.2546 14.47293997 15869
ISIS 1                  
1 03669U 69009A   26046.32653311  .00000289  00000+0  19114-3 0  9997
2 03669  88.4555 157.7451 1707873 134.2816 241.1772 11.30406287346008
SERT 2                  
1 04327U 70009A   26046.47012655 -.00000008  00000+0  45811-4 0  9991
2 04327  99.2731 350.7831 0004207 214.3297 255.1285 13.58727530776871
SL-3 R/B                
1 05118U 71028B   26046.52868253  .00041239  00000+0  51896-3 0  9990
2 05118  81.2331  79.3666 0016730  12.7712 347.3960 15.59291860985212
ASTEX 1                 
1 05560U 71089A   26046.26770064  .00000628  00000+0  15972-3 0  9993
2 05560  92.7148 144.5061 0016660 153.1594 207.0477 14.50744047859057
SL-8 R/B                
1 05730U 71119B   26046.52586564  .00016783  00000+0  86981-3 0  9992
2 05730  73.8843 217.1249 0552798 188.3250 170.8447 14.37151147652300
OAO 3 (COPERNICUS)      
1 06153U 72065A   26046.45864685  .00000474  00000+0  10160-3 0  9994
2 06153  35.0059  63.9703 0006840 334.0522 175.7129 14.59978251842944
