CCSDS_OMM_VERS = 2.0
CREATION_DATE  = 
ORIGINATOR     = 

OBJECT_NAME    = ATLAS CENTAUR 2
OBJECT_ID      = 1963-047A
CENTER_NAME    = EARTH
REF_FRAME      = TEME
TIME_SYSTEM    = UTC
MEAN_ELEMENT_THEORY = SGP/SGP4

EPOCH          = 2026-02-15T03:13:08.986656
MEAN_MOTION    = 14.12002500
ECCENTRICITY   = .05481114
INCLINATION    = 30.3580
RA_OF_ASC_NODE = 321.6901
ARG_OF_PERICENTER = 241.5314
MEAN_ANOMALY   = 112.9020

EPHEMERIS_TYPE = 0
CLASSIFICATION_TYPE = U
NORAD_CAT_ID   = 694
ELEMENT_SET_NO = 999
REV_AT_EPOCH   = 12843
BSTAR          = .13835052E-3
MEAN_MOTION_DOT = .1255E-4
MEAN_MOTION_DDOT = 0

CCSDS_OMM_VERS = 2.0
CREATION_DATE  = 
ORIGINATOR     = 

OBJECT_NAME    = THOR AGENA D R/B
OBJECT_ID      = 1964-002A
CENTER_NAME    = EARTH
REF_FRAME      = TEME
TIME_SYSTEM    = UTC
MEAN_ELEMENT_THEORY = SGP/SGP4

EPOCH          = 2026-02-15T11:22:06.994848
MEAN_MOTION    = 14.34006518
ECCENTRICITY   = .0032324
INCLINATION    = 99.1229
RA_OF_ASC_NODE = 58.6010
ARG_OF_PERICENTER = 324.7167
MEAN_ANOMALY   = 35.1876

EPHEMERIS_TYPE = 0
CLASSIFICATION_TYPE = U
NORAD_CAT_ID   = 733
ELEMENT_SET_NO = 999
REV_AT_EPOCH   = 23511
BSTAR          = .12129E-3
MEAN_MOTION_DOT = .291E-5
MEAN_MOTION_DDOT = 0

CCSDS_OMM_VERS = 2.0
CREATION_DATE  = 
ORIGINATOR     = 

OBJECT_NAME    = SL-3 R/B
OBJECT_ID      = 1964-053B
CENTER_NAME    = EARTH
REF_FRAME      = TEME
TIME_SYSTEM    = UTC
MEAN_ELEMENT_THEORY = SGP/SGP4

EPOCH          = 2026-02-15T07:31:48.317952
MEAN_MOTION    = 14.61344498
ECCENTRICITY   = .0078692
INCLINATION    = 65.0769
RA_OF_ASC_NODE = 36.8355
ARG_OF_PERICENTER = 299.3416
MEAN_ANOMALY   = 59.9839

EPHEMERIS_TYPE = 0
CLASSIFICATION_TYPE = U
NORAD_CAT_ID   = 877
ELEMENT_SET_NO = 999
REV_AT_EPOCH   = 26352
BSTAR          = .11447E-3
MEAN_MOTION_DOT = .466E-5
MEAN_MOTION_DDOT = 0

CCSDS_OMM_VERS = 2.0
CREATION_DATE  = 
ORIGINATOR     = 

OBJECT_NAME    = SL-8 R/B
OBJECT_ID      = 1967-045B
CENTER_NAME    = EARTH
REF_FRAME      = TEME
TIME_SYSTEM    = UTC
MEAN_ELEMENT_THEORY = SGP/SGP4

EPOCH          = 2026-02-15T10:19:27.704928
MEAN_MOTION    = 14.45599484
ECCENTRICITY   = .0063354
INCLINATION    = 74.0109
RA_OF_ASC_NODE = 29.6570
ARG_OF_PERICENTER = 41.4410
MEAN_ANOMALY   = 319.1527

EPHEMERIS_TYPE = 0
CLASSIFICATION_TYPE = U
NORAD_CAT_ID   = 2802
ELEMENT_SET_NO = 999
REV_AT_EPOCH   = 8580
BSTAR          = .13378E-3
MEAN_MOTION_DOT = .456E-5
MEAN_MOTION_DDOT = 0

CCSDS_OMM_VERS = 2.0
CREATION_DATE  = 
ORIGINATOR     = 

OBJECT_NAME    = SL-8 R/B
OBJECT_ID      = 1968-040B
CENTER_NAME    = EARTH
REF_FRAME      = TEME
TIME_SYSTEM    = UTC
MEAN_ELEMENT_THEORY = SGP/SGP4

EPOCH          = 2026-02-15T06:44:17.282112
MEAN_MOTION    = 15.03088904
ECCENTRICITY   = .0024969
INCLINATION    = 74.0329
RA_OF_ASC_NODE = 359.4722
ARG_OF_PERICENTER = 190.2812
MEAN_ANOMALY   = 169.7870

EPHEMERIS_TYPE = 0
CLASSIFICATION_TYPE = U
NORAD_CAT_ID   = 3230
ELEMENT_SET_NO = 999
REV_AT_EPOCH   = 8664
BSTAR          = .36642E-3
MEAN_MOTION_DOT = .4936E-4
MEAN_MOTION_DDOT = 0

CCSDS_OMM_VERS = 2.0
CREATION_DATE  = 
ORIGINATOR     = 

OBJECT_NAME    = OAO 2
OBJECT_ID      = 1968-110A
CENTER_NAME    = EARTH
REF_FRAME      = TEME
TIME_SYSTEM    = UTC
MEAN_ELEMENT_THEORY = SGP/SGP4

EPOCH          = 2026-02-15T08:41:17.392704
MEAN_MOTION    = 14.47293997
ECCENTRICITY   = .0005285
INCLINATION    = 34.9946
RA_OF_ASC_NODE = 29.8807
ARG_OF_PERICENTER = 12.8278
MEAN_ANOMALY   = 347.2546

EPHEMERIS_TYPE = 0
CLASSIFICATION_TYPE = U
NORAD_CAT_ID   = 3597
ELEMENT_SET_NO = 999
REV_AT_EPOCH   = 1586
BSTAR          = .8817E-4
MEAN_MOTION_DOT = .308E-5
MEAN_MOTION_DDOT = 0

CCSDS_OMM_VERS = 2.0
CREATION_DATE  = 
ORIGINATOR     = 

OBJECT_NAME    = ISIS 1
OBJECT_ID      = 1969-009A
CENTER_NAME    = EARTH
REF_FRAME      = TEME
TIME_SYSTEM    = UTC
MEAN_ELEMENT_THEORY = SGP/SGP4

EPOCH          = 2026-02-15T07:50:12.460704
MEAN_MOTION    = 11.30406287
ECCENTRICITY   = .1707873
INCLINATION    = 88.4555
RA_OF_ASC_NODE = 157.7451
ARG_OF_PERICENTER = 134.2816
MEAN_ANOMALY   = 241.1772

EPHEMERIS_TYPE = 0
CLASSIFICATION_TYPE = U
NORAD_CAT_ID   = 3669
ELEMENT_SET_NO = 999
REV_AT_EPOCH   = 34600
BSTAR          = .19114E-3
MEAN_MOTION_DOT = .289E-5
MEAN_MOTION_DDOT = 0

CCSDS_OMM_VERS = 2.0
CREATION_DATE  = 
ORIGINATOR     = 

OBJECT_NAME    = SERT 2
OBJECT_ID      = 1970-009A
CENTER_NAME    = EARTH
REF_FRAME      = TEME
TIME_SYSTEM    = UTC
MEAN_ELEMENT_THEORY = SGP/SGP4

EPOCH          = 2026-02-15T11:16:58.933920
MEAN_MOTION    = 13.58727530
ECCENTRICITY   = .0004207
INCLINATION    = 99.2731
RA_OF_ASC_NODE = 350.7831
ARG_OF_PERICENTER = 214.3297
MEAN_ANOMALY   = 255.1285

EPHEMERIS_TYPE = 0
CLASSIFICATION_TYPE = U
NORAD_CAT_ID   = 4327
ELEMENT_SET_NO = 999
REV_AT_EPOCH   = 77687
BSTAR          = .45811E-4
MEAN_MOTION_DOT = -.8E-7
MEAN_MOTION_DDOT = 0

CCSDS_OMM_VERS = 2.0
CREATION_DATE  = 
ORIGINATOR     = 

OBJECT_NAME    = SL-3 R/B
OBJECT_ID      = 1971-028B
CENTER_NAME    = EARTH
REF_FRAME      = TEME
TIME_SYSTEM    = UTC
MEAN_ELEMENT_THEORY = SGP/SGP4

EPOCH          = 2026-02-15T12:41:18.170592
MEAN_MOTION    = 15.59291860
ECCENTRICITY   = .001673
INCLINATION    = 81.2331
RA_OF_ASC_NODE = 79.3666
ARG_OF_PERICENTER = 12.7712
MEAN_ANOMALY   = 347.3960

EPHEMERIS_TYPE = 0
CLASSIFICATION_TYPE = U
NORAD_CAT_ID   = 5118
ELEMENT_SET_NO = 999
REV_AT_EPOCH   = 98521
BSTAR          = .51896E-3
MEAN_MOTION_DOT = .41239E-3
MEAN_MOTION_DDOT = 0

CCSDS_OMM_VERS = 2.0
CREATION_DATE  = 
ORIGINATOR     = 

OBJECT_NAME    = ASTEX 1
OBJECT_ID      = 1971-089A
CENTER_NAME    = EARTH
REF_FRAME      = TEME
TIME_SYSTEM    = UTC
MEAN_ELEMENT_THEORY = SGP/SGP4

EPOCH          = 2026-02-15T06:25:29.335296
MEAN_MOTION    = 14.50744047
ECCENTRICITY   = .001666
INCLINATION    = 92.7148
RA_OF_ASC_NODE = 144.5061
ARG_OF_PERICENTER = 153.1594
MEAN_ANOMALY   = 207.0477

EPHEMERIS_TYPE = 0
CLASSIFICATION_TYPE = U
NORAD_CAT_ID   = 5560
ELEMENT_SET_NO = 999
REV_AT_EPOCH   = 85905
BSTAR          = .15972E-3
MEAN_MOTION_DOT = .628E-5
MEAN_MOTION_DDOT = 0

CCSDS_OMM_VERS = 2.0
CREATION_DATE  = 
ORIGINATOR     = 

OBJECT_NAME    = SL-8 R/B
OBJECT_ID      = 1971-119B
CENTER_NAME    = EARTH
REF_FRAME      = TEME
TIME_SYSTEM    = UTC
MEAN_ELEMENT_THEORY = SGP/SGP4

EPOCH          = 2026-02-15T12:37:14.791296
MEAN_MOTION    = 14.37151147
ECCENTRICITY   = .0552798
INCLINATION    = 73.8843
RA_OF_ASC_NODE = 217.1249
ARG_OF_PERICENTER = 188.3250
MEAN_ANOMALY   = 170.8447

EPHEMERIS_TYPE = 0
CLASSIFICATION_TYPE = U
NORAD_CAT_ID   = 5730
ELEMENT_SET_NO = 999
REV_AT_EPOCH   = 65230
BSTAR          = .86981E-3
MEAN_MOTION_DOT = .16783E-3
MEAN_MOTION_DDOT = 0

CCSDS_OMM_VERS = 2.0
CREATION_DATE  = 
ORIGINATOR     = 

OBJECT_NAME    = OAO 3 (COPERNICUS)
OBJECT_ID      = 1972-065A
CENTER_NAME    = EARTH
REF_FRAME      = TEME
TIME_SYSTEM    = UTC
MEAN_ELEMENT_THEORY = SGP/SGP4

EPOCH          = 2026-02-15T11:00:27.087840
MEAN_MOTION    = 14.59978251
ECCENTRICITY   = .000684
INCLINATION    = 35.0059
RA_OF_ASC_NODE = 63.9703
ARG_OF_PERICENTER = 334.0522
MEAN_ANOMALY   = 175.7129

EPHEMERIS_TYPE = 0
CLASSIFICATION_TYPE = U
NORAD_CAT_ID   = 6153
ELEMENT_SET_NO = 999
REV_AT_EPOCH   = 84294
BSTAR          = .1016E-3
MEAN_MOTION_DOT = .474E-5
MEAN_MOTION_DDOT = 0

